[{"OBJECT_NAME":"NIGHTJAR","OBJECT_ID":"2024-149BV","EPOCH":"2026-03-09T15:29:33.054144","MEAN_MOTION":14.9839881,"ECCENTRICITY":0.00023928,"INCLINATION":97.6919,"RA_OF_ASC_NODE":146.7603,"ARG_OF_PERICENTER":83.3363,"MEAN_ANOMALY":276.8132,"EPHEMERIS_TYPE":0,"CLASSIFICATION_TYPE":"U","NORAD_CAT_ID":60535,"ELEMENT_SET_NO":999,"REV_AT_EPOCH":12796,"BSTAR":0.00036343971,"MEAN_MOTION_DOT":4.278e-5,"MEAN_MOTION_DDOT":0},{"OBJECT_NAME":"STARLINK-35717","OBJECT_ID":"2025-280U","EPOCH":"2026-03-09T22:33:27.809280","MEAN_MOTION":14.98330745,"ECCENTRICITY":0.00026692,"INCLINATION":70.0028,"RA_OF_ASC_NODE":333.8107,"ARG_OF_PERICENTER":274.0028,"MEAN_ANOMALY":86.0826,"EPHEMERIS_TYPE":0,"CLASSIFICATION_TYPE":"U","NORAD_CAT_ID":66839,"ELEMENT_SET_NO":999,"REV_AT_EPOCH":1611,"BSTAR":0.0002972443,"MEAN_MOTION_DOT":3.456e-5,"MEAN_MOTION_DDOT":0}]
